[
    {
        "Altitude(m)": 624790.8306602966,
        "Argument of Periapsis(deg)": 0.0,
        "Eccentricity": 0.0,
        "Inclination(deg)": 60.0,
        "Latitude(deg)": -59.14722351316162,
        "Longitude(deg)": -43.96526920320329,
        "Mean Anomaly(deg)": -81.8182,
        "RAAN(deg)": 130.0,
        "Satellite Name": "Test1 589",
        "Satellite Number": 589,
        "Semi-Major Axis(m)": 6980739.136638005,
        "Time(s)": 0
    },
    {
        "Altitude(m)": 624737.4853406538,
        "Argument of Periapsis(deg)": 0.00010418945913296404,
        "Eccentricity": 0.0,
        "Inclination(deg)": 60.0,
        "Latitude(deg)": -58.99467717786443,
        "Longitude(deg)": -42.84576444582673,
        "Mean Anomaly(deg)": -81.19809385453816,
        "RAAN(deg)": 129.99957995086024,
        "Satellite Name": "Test1 589",
        "Satellite Number": 589,
        "Semi-Major Axis(m)": 6980739.136638005,
        "Time(s)": 10
    }
]